[{"OBJECT_NAME":"SPAWAR-CAL-OR","OBJECT_ID":"2018-099W","EPOCH":"2026-03-09T16:14:17.483136","MEAN_MOTION":15.21464282,"ECCENTRICITY":0.00104186,"INCLINATION":97.3939,"RA_OF_ASC_NODE":118.6375,"ARG_OF_PERICENTER":310.1337,"MEAN_ANOMALY":49.8986,"EPHEMERIS_TYPE":0,"CLASSIFICATION_TYPE":"U","NORAD_CAT_ID":43778,"ELEMENT_SET_NO":999,"REV_AT_EPOCH":39751,"BSTAR":0.00050868189,"MEAN_MOTION_DOT":0.00011389,"MEAN_MOTION_DDOT":0},{"OBJECT_NAME":"OBJECT C","OBJECT_ID":"2024-105C","EPOCH":"2026-03-09T23:58:12.857088","MEAN_MOTION":15.19285938,"ECCENTRICITY":0.00116684,"INCLINATION":97.5862,"RA_OF_ASC_NODE":85.5433,"ARG_OF_PERICENTER":201.9597,"MEAN_ANOMALY":158.1139,"EPHEMERIS_TYPE":0,"CLASSIFICATION_TYPE":"U","NORAD_CAT_ID":59919,"ELEMENT_SET_NO":999,"REV_AT_EPOCH":9810,"BSTAR":0.00030616598,"MEAN_MOTION_DOT":6.401e-5,"MEAN_MOTION_DDOT":0}]
